{
  "type": "FeatureCollection",
  "features": [
    {
      "type": "Feature",
      "properties": {
        "norad_id": 66856,
        "name": "STARLINK-36072",
        "group": "last-30-days",
        "lat": 13.707851160995576,
        "lon": -150.85260358136753,
        "alt_km": 407.39969975682016,
        "timestamp": "2025-12-25T14:48:23.570725+00:00",
        "meta_object_name": "STARLINK-36072",
        "meta_object_id": "2025-281J",
        "meta_epoch": "2025-12-25T08:00:01.000224",
        "meta_mean_motion": 15.53768357,
        "meta_eccentricity": 0.00012332,
        "meta_inclination": 43.0004,
        "meta_ra_of_asc_node": 45.9872,
        "meta_arg_of_pericenter": 265.6476,
        "meta_mean_anomaly": 106.373,
        "meta_ephemeris_type": 0,
        "meta_classification_type": "U",
        "meta_norad_cat_id": 66856,
        "meta_element_set_no": 999,
        "meta_rev_at_epoch": 341,
        "meta_bstar": -0.03396979,
        "meta_mean_motion_dot": -0.01999203,
        "meta_mean_motion_ddot": 0,
        "tle_line1": "1 66856U 25281J   25359.33334491 -.01999203  00000+0 -33970-1 0  9990",
        "tle_line2": "2 66856  43.0004  45.9872 0001233 265.6476 106.3730 15.53768357  3412"
      },
      "geometry": {
        "type": "Point",
        "coordinates": [
          -150.85260358136753,
          13.707851160995576
        ]
      }
    },
    {
      "type": "Feature",
      "properties": {
        "norad_id": 66857,
        "name": "STARLINK-36083",
        "group": "last-30-days",
        "lat": 12.442844450163582,
        "lon": -149.37977384972262,
        "alt_km": 407.5641539760545,
        "timestamp": "2025-12-25T14:48:23.570736+00:00",
        "meta_object_name": "STARLINK-36083",
        "meta_object_id": "2025-281K",
        "meta_epoch": "2025-12-25T08:00:01.000224",
        "meta_mean_motion": 15.53774901,
        "meta_eccentricity": 0.00013968,
        "meta_inclination": 43.0007,
        "meta_ra_of_asc_node": 45.9824,
        "meta_arg_of_pericenter": 264.5937,
        "meta_mean_anomaly": 109.3393,
        "meta_ephemeris_type": 0,
        "meta_classification_type": "U",
        "meta_norad_cat_id": 66857,
        "meta_element_set_no": 999,
        "meta_rev_at_epoch": 341,
        "meta_bstar": -0.034066136,
        "meta_mean_motion_dot": -0.02004804,
        "meta_mean_motion_ddot": 0,
        "tle_line1": "1 66857U 25281K   25359.33334491 -.02004804  00000+0 -34066-1 0  9993",
        "tle_line2": "2 66857  43.0007  45.9824 0001396 264.5937 109.3393 15.53774901  3413"
      },
      "geometry": {
        "type": "Point",
        "coordinates": [
          -149.37977384972262,
          12.442844450163582
        ]
      }
    },
    {
      "type": "Feature",
      "properties": {
        "norad_id": 66858,
        "name": "STARLINK-35118",
        "group": "last-30-days",
        "lat": 11.169873469999832,
        "lon": -147.92184081189052,
        "alt_km": 407.8287054793627,
        "timestamp": "2025-12-25T14:48:23.570744+00:00",
        "meta_object_name": "STARLINK-35118",
        "meta_object_id": "2025-281L",
        "meta_epoch": "2025-12-25T08:00:01.000224",
        "meta_mean_motion": 15.53777818,
        "meta_eccentricity": 0.00016099,
        "meta_inclination": 43.0005,
        "meta_ra_of_asc_node": 45.9773,
        "meta_arg_of_pericenter": 267.9922,
        "meta_mean_anomaly": 107.8565,
        "meta_ephemeris_type": 0,
        "meta_classification_type": "U",
        "meta_norad_cat_id": 66858,
        "meta_element_set_no": 999,
        "meta_rev_at_epoch": 319,
        "meta_bstar": -0.034139967,
        "meta_mean_motion_dot": -0.02009013,
        "meta_mean_motion_ddot": 0,
        "tle_line1": "1 66858U 25281L   25359.33334491 -.02009013  00000+0 -34140-1 0  9994",
        "tle_line2": "2 66858  43.0005  45.9773 0001609 267.9922 107.8565 15.53777818  3192"
      },
      "geometry": {
        "type": "Point",
        "coordinates": [
          -147.92184081189052,
          11.169873469999832
        ]
      }
    },
    {
      "type": "Feature",
      "properties": {
        "norad_id": 66859,
        "name": "STARLINK-35646",
        "group": "last-30-days",
        "lat": 9.887808382359422,
        "lon": -146.47289988164385,
        "alt_km": 407.87334507626565,
        "timestamp": "2025-12-25T14:48:23.570753+00:00",
        "meta_object_name": "STARLINK-35646",
        "meta_object_id": "2025-281M",
        "meta_epoch": "2025-12-25T08:00:01.000224",
        "meta_mean_motion": 15.53766898,
        "meta_eccentricity": 0.00014351,
        "meta_inclination": 43,
        "meta_ra_of_asc_node": 45.9738,
        "meta_arg_of_pericenter": 264.5842,
        "meta_mean_anomaly": 113.185,
        "meta_ephemeris_type": 0,
        "meta_classification_type": "U",
        "meta_norad_cat_id": 66859,
        "meta_element_set_no": 999,
        "meta_rev_at_epoch": 341,
        "meta_bstar": -0.033766283,
        "meta_mean_motion_dot": -0.019885,
        "meta_mean_motion_ddot": 0,
        "tle_line1": "1 66859U 25281M   25359.33334491 -.01988500  00000+0 -33766-1 0  9994",
        "tle_line2": "2 66859  43.0000  45.9738 0001435 264.5842 113.1850 15.53766898  3418"
      },
      "geometry": {
        "type": "Point",
        "coordinates": [
          -146.47289988164385,
          9.887808382359422
        ]
      }
    },
    {
      "type": "Feature",
      "properties": {
        "norad_id": 66860,
        "name": "STARLINK-35987",
        "group": "last-30-days",
        "lat": 3.4084613168281748,
        "lon": -139.38055257097292,
        "alt_km": 408.7921019246942,
        "timestamp": "2025-12-25T14:48:23.570762+00:00",
        "meta_object_name": "STARLINK-35987",
        "meta_object_id": "2025-281N",
        "meta_epoch": "2025-12-25T08:00:01.000224",
        "meta_mean_motion": 15.53762832,
        "meta_eccentricity": 0.00015513,
        "meta_inclination": 43.0001,
        "meta_ra_of_asc_node": 45.9496,
        "meta_arg_of_pericenter": 272.788,
        "meta_mean_anomaly": 114.5662,
        "meta_ephemeris_type": 0,
        "meta_classification_type": "U",
        "meta_norad_cat_id": 66860,
        "meta_element_set_no": 999,
        "meta_rev_at_epoch": 341,
        "meta_bstar": -0.033600689,
        "meta_mean_motion_dot": -0.01979565,
        "meta_mean_motion_ddot": 0,
        "tle_line1": "1 66860U 25281N   25359.33334491 -.01979565  00000+0 -33601-1 0  9995",
        "tle_line2": "2 66860  43.0001  45.9496 0001551 272.7880 114.5662 15.53762832  3414"
      },
      "geometry": {
        "type": "Point",
        "coordinates": [
          -139.38055257097292,
          3.4084613168281748
        ]
      }
    },
    {
      "type": "Feature",
      "properties": {
        "norad_id": 66861,
        "name": "STARLINK-35991",
        "group": "last-30-days",
        "lat": 7.309769421951661,
        "lon": -143.61412726297888,
        "alt_km": 408.22788481533735,
        "timestamp": "2025-12-25T14:48:23.570771+00:00",
        "meta_object_name": "STARLINK-35991",
        "meta_object_id": "2025-281P",
        "meta_epoch": "2025-12-25T08:00:01.000224",
        "meta_mean_motion": 15.53746287,
        "meta_eccentricity": 0.00016345,
        "meta_inclination": 43.0007,
        "meta_ra_of_asc_node": 45.9636,
        "meta_arg_of_pericenter": 266.9522,
        "meta_mean_anomaly": 114.6574,
        "meta_ephemeris_type": 0,
        "meta_classification_type": "U",
        "meta_norad_cat_id": 66861,
        "meta_element_set_no": 999,
        "meta_rev_at_epoch": 341,
        "meta_bstar": -0.033008888,
        "meta_mean_motion_dot": -0.01947245,
        "meta_mean_motion_ddot": 0,
        "tle_line1": "1 66861U 25281P   25359.33334491 -.01947245  00000+0 -33009-1 0  9998",
        "tle_line2": "2 66861  43.0007  45.9636 0001634 266.9522 114.6574 15.53746287  3416"
      },
      "geometry": {
        "type": "Point",
        "coordinates": [
          -143.61412726297888,
          7.309769421951661
        ]
      }
    },
    {
      "type": "Feature",
      "properties": {
        "norad_id": 66862,
        "name": "STARLINK-35974",
        "group": "last-30-days",
        "lat": 8.600003463299085,
        "lon": -145.03780901840997,
        "alt_km": 408.0671382138098,
        "timestamp": "2025-12-25T14:48:23.570781+00:00",
        "meta_object_name": "STARLINK-35974",
        "meta_object_id": "2025-281Q",
        "meta_epoch": "2025-12-25T08:00:01.000224",
        "meta_mean_motion": 15.53777804,
        "meta_eccentricity": 0.00014436,
        "meta_inclination": 43.0004,
        "meta_ra_of_asc_node": 45.9679,
        "meta_arg_of_pericenter": 265.9518,
        "meta_mean_anomaly": 113.732,
        "meta_ephemeris_type": 0,
        "meta_classification_type": "U",
        "meta_norad_cat_id": 66862,
        "meta_element_set_no": 999,
        "meta_rev_at_epoch": 331,
        "meta_bstar": -0.034176239,
        "meta_mean_motion_dot": -0.02010819,
        "meta_mean_motion_ddot": 0,
        "tle_line1": "1 66862U 25281Q   25359.33334491 -.02010819  00000+0 -34176-1 0  9994",
        "tle_line2": "2 66862  43.0004  45.9679 0001443 265.9518 113.7320 15.53777804  3310"
      },
      "geometry": {
        "type": "Point",
        "coordinates": [
          -145.03780901840997,
          8.600003463299085
        ]
      }
    }
  ]
}